NORAD_CAT_ID,OBJECT_NAME,OBJECT_TYPE,EPOCH,MEAN_MOTION,ECCENTRICITY,INCLINATION,RA_OF_ASC_NODE,ARG_OF_PERICENTER,MEAN_ANOMALY,BSTAR,MEAN_MOTION_DOT,MEAN_MOTION_DDOT,TLE_LINE0,TLE_LINE1,TLE_LINE2,SEMIMAJOR_AXIS,PERIOD,APOGEE,PERIGEE,DECAYED
54064.0,STARLINK-5172,PAYLOAD,2022-12-09 18:09:48,15.73182309,0.000422,53.2148,259.6864,6.3045,353.8028,-8.4437e-05,-0.00012455,0.0,0 STARLINK-5172,1 54064U 22136P   22343.75680939 -.00012455  00000-0 -84437-4 0  9993,2 54064  53.2148 259.6864 0004220   6.3045 353.8028 15.73182309  8400,6727.946,91.534,352.65,346.971,0.0
54064.0,STARLINK-5172,PAYLOAD,2022-12-10 04:50:10,15.73200584,0.0004095,53.2144,257.4845,1.3374,358.7657,-1.8139e-05,-3.171e-05,0.0,0 STARLINK-5172,1 54064U 22136P   22344.20150504 -.00003171  00000-0 -18139-4 0  9995,2 54064  53.2144 257.4845 0004095   1.3374 358.7657 15.73200584  8476,6727.894,91.533,352.514,347.00300000000016,0.0
54064.0,STARLINK-5172,PAYLOAD,2022-12-11 00:39:24,15.73219855,0.0004263,53.214,253.3982,3.2885,356.8162,0.00011546,0.00015631,0.0,0 STARLINK-5172,1 54064U 22136P   22345.02737246  .00015631  00000-0  11546-3 0  9996,2 54064  53.2140 253.3982 0004263   3.2885 356.8162 15.73219855  8600,6727.839,91.532,352.57199999999995,346.835,0.0
54064.0,STARLINK-5172,PAYLOAD,2022-12-12 04:06:03,15.73209744,0.0003748,53.214,247.7393,11.1987,348.9116,-1.5001e-05,-2.731e-05,0.0,0 STARLINK-5172,1 54064U 22136P   22346.17087202 -.00002731  00000-0 -15001-4 0  9993,2 54064  53.2140 247.7393 0003748  11.1987 348.9116 15.73209744  8787,6727.8669999999975,91.533,352.254,347.211,0.0
54064.0,STARLINK-5172,PAYLOAD,2022-12-13 10:35:39,15.73211111,0.0003763,53.2136,241.4516,7.7833,352.3245,2.3531e-05,2.682e-05,0.0,0 STARLINK-5172,1 54064U 22136P   22347.44142447  .00002682  00000-0  23531-4 0  9997,2 54064  53.2136 241.4516 0003763   7.7833 352.3245 15.73211111  8501,6727.863,91.533,352.26,347.19699999999995,0.0
54064.0,STARLINK-5172,PAYLOAD,2022-12-13 19:44:32,15.73194932,0.0003808,53.2147,239.5645,6.3989,353.7079,-1.7881e-05,-3.133e-05,0.0,0 STARLINK-5172,1 54064U 22136P   22347.82259816 -.00003133  00000-0 -17881-4 0  9993,2 54064  53.2147 239.5645 0003808   6.3989 353.7079 15.73194932  9042,6727.91,91.533,352.337,347.213,0.0
54064.0,STARLINK-5172,PAYLOAD,2022-12-14 09:27:51,15.73221678,0.0004163,53.2145,236.7348,10.7294,349.3814,7.4176e-05,9.812e-05,0.0,0 STARLINK-5172,1 54064U 22136P   22348.39434513  .00009812  00000-0  74176-4 0  9993,2 54064  53.2145 236.7348 0004163  10.7294 349.3814 15.73221678  9138,6727.833000000001,91.532,352.499,346.898,0.0
54064.0,STARLINK-5172,PAYLOAD,2022-12-14 20:08:12,15.73223092,0.0003599,53.2146,234.5352,11.9529,348.1576,4.916100000000001e-05,6.289e-05,0.0,0 STARLINK-5172,1 54064U 22136P   22348.83903588  .00006289  00000-0  49161-4 0  9996,2 54064  53.2146 234.5352 0003599  11.9529 348.1576 15.73223092  8724,6727.829000000002,91.532,352.116,347.273,0.0
54064.0,STARLINK-5172,PAYLOAD,2022-12-15 02:14:07,15.73223154,0.0003834,53.2144,233.2771,8.2006,351.9076,3.9252e-05,4.895e-05,0.0,0 STARLINK-5172,1 54064U 22136P   22349.09314488  .00004895  00000-0  39252-4 0  9991,2 54064  53.2144 233.2771 0003834   8.2006 351.9076 15.73223154  9248,6727.829000000002,91.532,352.274,347.115,0.0
54064.0,STARLINK-5172,PAYLOAD,2022-12-15 09:51:31,15.73236469,0.0003832,53.2144,231.705,8.7047,351.4038,5.9352e-05,7.729e-05,0.0,0 STARLINK-5172,1 54064U 22136P   22349.41077554  .00007729  00000-0  59352-4 0  9999,2 54064  53.2144 231.7050 0003832   8.7047 351.4038 15.73236469  8817,6727.791,91.531,352.2340000000001,347.07800000000015,0.0
54064.0,STARLINK-5172,PAYLOAD,2022-12-15 20:31:53,15.73197365,0.0004131,53.2143,229.505,8.335,351.7738,-5.2911e-05,-8.046e-05,0.0,0 STARLINK-5172,1 54064U 22136P   22349.85547963 -.00008046  00000-0 -52911-4 0  9992,2 54064  53.2143 229.5050 0004131   8.3350 351.7738 15.73197365  8885,6727.903,91.533,352.547,346.98800000000006,0.0
54064.0,STARLINK-5172,PAYLOAD,2022-12-16 01:06:20,15.73182386,0.0003902,53.2145,228.5617,12.0511,348.0601,-9.6542e-05,-0.00014146,0.0,0 STARLINK-5172,1 54064U 22136P   22350.04606830 -.00014146  00000-0 -96542-4 0  9990,2 54064  53.2145 228.5617 0003902  12.0511 348.0601 15.73182386  9393,6727.945,91.534,352.436,347.185,0.0
54064.0,STARLINK-5172,PAYLOAD,2022-12-16 08:43:44,15.73200032,0.0003621,53.2145,226.9903,12.2118,347.8989,-3.4941e-05,-5.526e-05,0.0,0 STARLINK-5172,1 54064U 22136P   22350.36370594 -.00005526  00000-0 -34941-4 0  9997,2 54064  53.2145 226.9903 0003621  12.2118 347.8989 15.73200032  9447,6727.895,91.533,352.196,347.324,0.0
54064.0,STARLINK-5172,PAYLOAD,2022-12-16 20:55:35,15.73180795,0.0003519,53.2147,224.4751,7.6135,352.4938,-3.7469e-05,-5.876e-05,0.0,0 STARLINK-5172,1 54064U 22136P   22350.87194043 -.00005876  00000-0 -37469-4 0  9992,2 54064  53.2147 224.4751 0003519   7.6135 352.4938 15.73180795  9524,6727.95,91.534,352.182,347.44699999999995,0.0
54064.0,STARLINK-5172,PAYLOAD,2022-12-17 01:30:01,15.73198436,0.0002898999999999,53.2146,223.5321,4.9497,355.1551,2.0533e-05,2.26e-05,0.0,0 STARLINK-5172,1 54064U 22136P   22351.06252113  .00002260  00000-0  20533-4 0  9993,2 54064  53.2146 223.5321 0002899   4.9497 355.1551 15.73198436  9552,6727.9,91.533,351.715,347.814,0.0
54064.0,STARLINK-5172,PAYLOAD,2022-12-17 10:38:55,15.73192201,0.0003184,53.215,221.6455,13.4177,346.6928,3.0994e-05,3.728e-05,0.0,0 STARLINK-5172,1 54064U 22136P   22351.44369785  .00003728  00000-0  30994-4 0  9991,2 54064  53.2150 221.6455 0003184  13.4177 346.6928 15.73192201  9133,6727.917,91.534,351.925,347.64,0.0
54064.0,STARLINK-5172,PAYLOAD,2022-12-17 19:47:48,15.73200677,0.0003161,53.2151,219.7597,13.5368,346.5736,8.492e-05,0.00011314,0.0,0 STARLINK-5172,1 54064U 22136P   22351.82486929  .00011314  00000-0  84920-4 0  9991,2 54064  53.2151 219.7597 0003161  13.5368 346.5736 15.73200677  9196,6727.893,91.533,351.885,347.63199999999995,0.0
54064.0,STARLINK-5172,PAYLOAD,2022-12-18 07:59:39,15.7319862,0.0002881,53.2157,217.2442,14.3729,345.7373,3.3402e-05,4.068e-05,0.0,0 STARLINK-5172,1 54064U 22136P   22352.33309498  .00004068  00000-0  33402-4 0  9990,2 54064  53.2157 217.2442 0002881  14.3729 345.7373 15.73198620  9273,6727.899,91.533,351.702,347.826,0.0
54064.0,STARLINK-5172,PAYLOAD,2022-12-18 21:42:56,15.733015099999998,0.0002233,53.2165,214.4151,35.2313,324.8854,0.00028332,0.00039504,0.0,0 STARLINK-5172,1 54064U 22136P   22352.90481599  .00039504  00000-0  28332-3 0  9994,2 54064  53.2165 214.4151 0002233  35.2313 324.8854 15.73301510  9366,6727.606,91.527,350.973,347.969,0.0
54064.0,STARLINK-5172,PAYLOAD,2022-12-19 00:45:56,15.73209414,0.00025,53.2162,213.7862,17.8355,342.2752,3.3364e-05,4.065e-05,0.0,0 STARLINK-5172,1 54064U 22136P   22353.03189911  .00004065  00000-0  33364-4 0  9998,2 54064  53.2162 213.7862 0002500  17.8355 342.2752 15.73209414  9869,6727.868,91.533,351.415,348.051,0.0
54064.0,STARLINK-5172,PAYLOAD,2022-12-19 08:23:19,15.73223804,0.000241,53.2166,212.2154,14.7726,345.3364,5.919899999999999e-05,7.703e-05,0.0,0 STARLINK-5172,1 54064U 22136P   22353.34953233  .00007703  00000-0  59199-4 0  9994,2 54064  53.2166 212.2154 0002410  14.7726 345.3364 15.73223804  9917,6727.8269999999975,91.532,351.314,348.071,0.0
54064.0,STARLINK-5172,PAYLOAD,2022-12-19 23:38:08,15.73202828,0.0002517,53.2164,209.0704,19.4298,340.6818,2.8025e-06,-2.29e-06,0.0,0 STARLINK-5172,1 54064U 22136P   22353.98481891 -.00000229  00000-0  28025-5 0  9992,2 54064  53.2164 209.0704 0002517  19.4298 340.6818 15.73202828 10012,6727.887,91.533,351.446,348.059,0.0
54064.0,STARLINK-5172,PAYLOAD,2022-12-20 07:15:32,15.73199992,0.0001867,53.2166,207.4986,28.1529,331.9592,-2.6163e-06,-9.88e-06,0.0,0 STARLINK-5172,1 54064U 22136P   22354.30245817 -.00000988  00000-0 -26163-5 0  9999,2 54064  53.2166 207.4986 0001867  28.1529 331.9592 15.73199992  9588,6727.895,91.533,351.016,348.504,0.0
54064.0,STARLINK-5172,PAYLOAD,2022-12-21 01:33:17,15.73217804,0.0001987,53.2161,203.7272,47.5582,312.5606,2.0711e-05,2.289e-05,0.0,0 STARLINK-5172,1 54064U 22136P   22355.06478727  .00002289  00000-0  20711-4 0  9997,2 54064  53.2161 203.7272 0001987  47.5582 312.5606 15.73217804 10189,6727.844,91.532,351.046,348.37300000000016,0.0
54064.0,STARLINK-5172,PAYLOAD,2022-12-21 16:48:06,15.73205342,0.0001576999999999,53.2164,200.5836,43.3703,316.7441,1.7462e-05,1.831e-05,0.0,0 STARLINK-5172,1 54064U 22136P   22355.70007087  .00001831  00000-0  17462-4 0  9996,2 54064  53.2164 200.5836 0001577  43.3703 316.7441 15.73205342 10285,6727.88,91.533,350.806,348.684,0.0
54064.0,STARLINK-5172,PAYLOAD,2022-12-21 22:53:59,15.73238933,0.0001138,53.2162,199.3258,69.0123,291.1019,5.968399999999999e-05,7.778e-05,0.0,0 STARLINK-5172,1 54064U 22136P   22355.95416321  .00007778  00000-0  59684-4 0  9996,2 54064  53.2162 199.3258 0001138  69.0123 291.1019 15.73238933 10324,6727.784000000002,91.531,350.415,348.884,0.0
54064.0,STARLINK-5172,PAYLOAD,2022-12-22 06:31:23,15.73230316,0.000206,53.2165,197.7537,50.8004,309.3199,4.5384e-05,5.761e-05,0.0,0 STARLINK-5172,1 54064U 22136P   22356.27180488  .00005761  00000-0  45384-4 0  9996,2 54064  53.2165 197.7537 0002060  50.8004 309.3199 15.73230316  9898,6727.809,91.531,351.06,348.288,0.0
54064.0,STARLINK-5172,PAYLOAD,2022-12-22 14:08:47,15.73226168,0.0001314,53.2161,196.1823,51.195,308.9187,2.7528e-05,3.249e-05,0.0,0 STARLINK-5172,1 54064U 22136P   22356.58944108  .00003249  00000-0  27528-4 0  9996,2 54064  53.2161 196.1823 0001314  51.1950 308.9187 15.73226168 10423,6727.821,91.532,350.57,348.802,0.0
54064.0,STARLINK-5172,PAYLOAD,2022-12-22 17:11:46,15.73204482,0.0001341999999999,53.2173,195.5528,46.9447,313.1685,5.0904e-06,9.5e-07,0.0,0 STARLINK-5172,1 54064U 22136P   22356.71651048  .00000095  00000-0  50904-5 0  9990,2 54064  53.2173 195.5528 0001342  46.9447 313.1685 15.73204482  9968,6727.882,91.533,350.65,348.845,0.0
